OBJECT_NAME,OBJECT_ID,EPOCH,MEAN_MOTION,ECCENTRICITY,INCLINATION,RA_OF_ASC_NODE,ARG_OF_PERICENTER,MEAN_ANOMALY,EPHEMERIS_TYPE,CLASSIFICATION_TYPE,NORAD_CAT_ID,ELEMENT_SET_NO,REV_AT_EPOCH,BSTAR,MEAN_MOTION_DOT,MEAN_MOTION_DDOT
STARLINK-3271,2021-125M,2026-07-10T08:00:03.000384,15.13631082,.00014093,53.1610,68.1736,97.4666,194.6440,0,U,50167,999,580,.11885173E-3,.1859E-4,0
STARLINK-3301,2021-125P,2026-07-10T08:00:03.000384,15.33213870,.00011646,53.1611,55.5927,66.7489,127.5971,0,U,50169,999,580,.11285669E-2,.36533E-3,0
STARLINK-3245,2021-125Q,2026-07-10T08:00:03.000384,15.26852303,.00019007,53.1621,57.6019,66.7918,54.4133,0,U,50170,999,576,.20395163E-2,.54576E-3,0
STARLINK-3286,2021-125R,2026-07-10T00:08:20.294016,15.31708507,.00009646,53.1614,56.3851,91.7061,268.4051,0,U,50171,999,25511,.67480828E-4,.173E-4,0
STARLINK-3287,2021-125S,2026-07-09T09:04:52.018176,15.08833912,.00016522,53.1599,62.6125,85.9160,274.2020,0,U,50172,999,25500,.21516888E-4,.54E-6,0
STARLINK-3289,2021-125T,2026-07-10T00:31:46.209504,15.14811560,.00013808,53.2158,46.6721,79.4148,280.7003,0,U,50173,999,25526,.91035757E-3,.16841E-3,0
STARLINK-3292,2021-125U,2026-07-10T08:00:03.000384,15.35405700,.00010475,53.1602,51.0204,64.4996,324.7894,0,U,50174,999,580,-.17432177E-3,-.6457E-4,0
STARLINK-3291,2021-125V,2026-07-08T22:13:04.349856,15.08833961,.00015527,53.1604,64.6471,82.1378,277.9789,0,U,50175,999,25490,-.7642253E-5,-.41E-5,0
STARLINK-3293,2021-125W,2026-07-10T08:00:03.000384,15.26251390,.00018665,53.1607,57.6636,80.0894,89.4080,0,U,50176,999,575,.19747342E-2,.51857E-3,0
STARLINK-3282,2021-125X,2026-07-10T08:00:03.000384,15.35406176,.00016342,53.1610,55.2626,98.1524,164.8256,0,U,50177,999,545,-.46680837E-3,-.16632E-3,0
STARLINK-3283,2021-125Z,2026-07-10T08:00:03.000384,15.27598000,.00016567,53.1614,57.5425,96.3651,115.7294,0,U,50179,999,581,.18212527E-2,.49786E-3,0
STARLINK-3265,2021-125AA,2026-07-10T08:00:03.000384,15.26360183,.00015478,53.1604,57.6621,99.1895,131.5477,0,U,50180,999,581,.1794223E-2,.47211E-3,0
STARLINK-3285,2021-125AB,2026-07-10T08:00:03.000384,15.26089865,.00012421,53.1599,57.6861,105.4955,153.5627,0,U,50181,999,570,.18430831E-2,.48115E-3,0
STARLINK-3277,2021-125AC,2026-07-10T00:15:01.307520,15.31696973,.000096,53.1615,56.2962,97.3828,262.7282,0,U,50182,999,25515,.11480769E-4,-.9E-7,0
STARLINK-3281,2021-125AD,2026-07-10T00:11:19.179168,15.09363567,.0001414,53.1608,59.7486,106.7132,253.4015,0,U,50183,999,25511,.51761561E-3,.8077E-4,0
STARLINK-3279,2021-125AF,2026-07-10T08:00:03.000384,15.27143379,.00010634,53.1600,57.5969,141.2477,141.3679,0,U,50185,999,581,.19986777E-2,.53947E-3,0
STARLINK-3274,2021-125AG,2026-07-09T08:47:22.121664,15.29357881,.00009257,53.1610,71.2283,97.2892,262.8214,0,U,50186,999,25484,.36580016E-4,.7E-5,0
STARLINK-3272,2021-125AH,2026-07-09T23:35:16.930176,15.12665512,.00016984,53.2145,48.6138,82.8660,277.2527,0,U,50187,999,25520,.63818552E-3,.11009E-3,0
STARLINK-3276,2021-125AK,2026-07-09T08:38:39.230592,15.17377486,.00036634,53.2109,56.8717,126.0774,234.0562,0,U,50189,999,25509,.99085621E-3,.19774E-3,0
STARLINK-3268,2021-125AL,2026-07-10T05:48:23.999616,15.35323506,.00008519,53.1597,45.1664,209.8618,150.2337,0,U,50190,999,25528,-.38527265E-3,-.13761E-3,0
STARLINK-3273,2021-125AM,2026-07-10T08:00:03.000384,15.18650046,.0002039,53.1605,68.0206,99.4854,110.5948,0,U,50191,999,581,-.21558103E-4,-.77E-5,0
STARLINK-3259,2021-125AN,2026-07-09T21:54:34.195392,15.08845289,.00013053,53.1607,50.2114,106.3524,253.7611,0,U,50192,999,25518,.10611384E-3,.1401E-4,0
STARLINK-3261,2021-125AP,2026-07-10T08:00:03.000384,15.16336484,.00021837,53.1598,48.2093,69.1226,54.3470,0,U,50193,999,581,.11720099E-2,.22761E-3,0
STARLINK-3266,2021-125AR,2026-07-10T08:00:03.000384,15.12132449,.00008166,53.1599,48.3039,124.5806,330.5355,0,U,50195,999,581,.1350524E-2,.2332E-3,0
STARLINK-3267,2021-125AT,2026-07-10T07:16:17.386464,15.08832302,.00011884,53.1614,48.4588,85.2489,274.8638,0,U,50197,999,25529,.4054529E-5,-.223E-5,0
STARLINK-3264,2021-125AU,2026-07-08T21:32:00.779136,15.08832799,.00012954,53.1610,54.7770,78.8559,281.2578,0,U,50198,999,25503,.19189302E-3,.2767E-4,0
STARLINK-3270,2021-125AV,2026-07-10T00:07:03.904320,15.08830138,.00013101,53.1606,49.7965,86.8971,273.2170,0,U,50199,999,25519,-.73100665E-4,-.1451E-4,0
STARLINK-3235,2021-125AW,2026-07-10T08:00:03.000384,15.11200731,.00010527,53.1609,48.2583,105.4377,132.7844,0,U,50200,999,580,.12059946E-2,.20248E-3,0
STARLINK-3256,2021-125AY,2026-07-10T08:00:03.000384,15.15364375,.00011267,53.1597,48.2373,28.6664,19.8818,0,U,50202,999,576,.11403117E-2,.21524E-3,0
STARLINK-3257,2021-125AZ,2026-07-10T08:00:03.000384,15.17909412,.00013248,53.1613,48.2388,121.2770,146.7490,0,U,50203,999,574,.90882891E-3,.18388E-3,0
