STARLINK-3271           
1 50167U 21125M   26191.33336806  .00001859  00000+0  11885-3 0  9999
2 50167  53.1610  68.1736 0001409  97.4666 194.6440 15.13631082  5801
STARLINK-3301           
1 50169U 21125P   26191.33336806  .00036533  00000+0  11286-2 0  9992
2 50169  53.1611  55.5927 0001164  66.7489 127.5971 15.33213870  5803
STARLINK-3245           
1 50170U 21125Q   26191.33336806  .00054576  00000+0  20395-2 0  9992
2 50170  53.1621  57.6019 0001900  66.7918  54.4133 15.26852303  5761
STARLINK-3286           
1 50171U 21125R   26191.00579044  .00001730  00000+0  67481-4 0  9993
2 50171  53.1614  56.3851 0000964  91.7061 268.4051 15.31708507255114
STARLINK-3287           
1 50172U 21125S   26190.37837984  .00000054  00000+0  21517-4 0  9991
2 50172  53.1599  62.6125 0001652  85.9160 274.2020 15.08833912255003
STARLINK-3289           
1 50173U 21125T   26191.02206261  .00016841  00000+0  91036-3 0  9996
2 50173  53.2158  46.6721 0001380  79.4148 280.7003 15.14811560255265
STARLINK-3292           
1 50174U 21125U   26191.33336806 -.00006457  00000+0 -17432-3 0  9992
2 50174  53.1602  51.0204 0001047  64.4996 324.7894 15.35405700  5808
STARLINK-3291           
1 50175U 21125V   26189.92574479 -.00000410  00000+0 -76423-5 0  9995
2 50175  53.1604  64.6471 0001552  82.1378 277.9789 15.08833961254902
STARLINK-3293           
1 50176U 21125W   26191.33336806  .00051857  00000+0  19747-2 0  9996
2 50176  53.1607  57.6636 0001866  80.0894  89.4080 15.26251390  5756
STARLINK-3282           
1 50177U 21125X   26191.33336806 -.00016632  00000+0 -46681-3 0  9999
2 50177  53.1610  55.2626 0001634  98.1524 164.8256 15.35406176  5451
STARLINK-3283           
1 50179U 21125Z   26191.33336806  .00049786  00000+0  18213-2 0  9994
2 50179  53.1614  57.5425 0001656  96.3651 115.7294 15.27598000  5810
STARLINK-3265           
1 50180U 21125AA  26191.33336806  .00047211  00000+0  17942-2 0  9995
2 50180  53.1604  57.6621 0001547  99.1895 131.5477 15.26360183  5817
STARLINK-3285           
1 50181U 21125AB  26191.33336806  .00048115  00000+0  18431-2 0  9994
2 50181  53.1599  57.6861 0001242 105.4955 153.5627 15.26089865  5701
STARLINK-3277           
1 50182U 21125AC  26191.01043180 -.00000009  00000+0  11481-4 0  9991
2 50182  53.1615  56.2962 0000960  97.3828 262.7282 15.31696973255158
STARLINK-3281           
1 50183U 21125AD  26191.00786087  .00008077  00000+0  51762-3 0  9998
2 50183  53.1608  59.7486 0001414 106.7132 253.4015 15.09363567255110
STARLINK-3279           
1 50185U 21125AF  26191.33336806  .00053947  00000+0  19987-2 0  9994
2 50185  53.1600  57.5969 0001063 141.2477 141.3679 15.27143379  5810
STARLINK-3274           
1 50186U 21125AG  26190.36622826  .00000700  00000+0  36580-4 0  9996
2 50186  53.1610  71.2283 0000925  97.2892 262.8214 15.29357881254841
STARLINK-3272           
1 50187U 21125AH  26190.98283484  .00011009  00000+0  63819-3 0  9996
2 50187  53.2145  48.6138 0001698  82.8660 277.2527 15.12665512255207
STARLINK-3276           
1 50189U 21125AK  26190.36017628  .00019774  00000+0  99086-3 0  9997
2 50189  53.2109  56.8717 0003663 126.0774 234.0562 15.17377486255096
STARLINK-3268           
1 50190U 21125AL  26191.24194444 -.00013761  00000+0 -38527-3 0  9994
2 50190  53.1597  45.1664 0000851 209.8618 150.2337 15.35323506255287
STARLINK-3273           
1 50191U 21125AM  26191.33336806 -.00000770  00000+0 -21558-4 0  9998
2 50191  53.1605  68.0206 0002039  99.4854 110.5948 15.18650046  5811
STARLINK-3259           
1 50192U 21125AN  26190.91289578  .00001401  00000+0  10611-3 0  9992
2 50192  53.1607  50.2114 0001305 106.3524 253.7611 15.08845289255180
STARLINK-3261           
1 50193U 21125AP  26191.33336806  .00022761  00000+0  11720-2 0  9990
2 50193  53.1598  48.2093 0002183  69.1226  54.3470 15.16336484  5815
STARLINK-3266           
1 50195U 21125AR  26191.33336806  .00023320  00000+0  13505-2 0  9997
2 50195  53.1599  48.3039 0000816 124.5806 330.5355 15.12132449  5812
STARLINK-3267           
1 50197U 21125AT  26191.30297901 -.00000223  00000+0  40545-5 0  9993
2 50197  53.1614  48.4588 0001188  85.2489 274.8638 15.08832302255298
STARLINK-3264           
1 50198U 21125AU  26189.89723124  .00002767  00000+0  19189-3 0  9998
2 50198  53.1610  54.7770 0001295  78.8559 281.2578 15.08832799255030
STARLINK-3270           
1 50199U 21125AV  26191.00490630 -.00001451  00000+0 -73101-4 0  9994
2 50199  53.1606  49.7965 0001310  86.8971 273.2170 15.08830138255192
STARLINK-3235           
1 50200U 21125AW  26191.33336806  .00020248  00000+0  12060-2 0  9995
2 50200  53.1609  48.2583 0001052 105.4377 132.7844 15.11200731  5801
STARLINK-3256           
1 50202U 21125AY  26191.33336806  .00021524  00000+0  11403-2 0  9995
2 50202  53.1597  48.2373 0001126  28.6664  19.8818 15.15364375  5763
STARLINK-3257           
1 50203U 21125AZ  26191.33336806  .00018388  00000+0  90883-3 0  9990
2 50203  53.1613  48.2388 0001324 121.2770 146.7490 15.17909412  5740
